OBJECT_NAME,OBJECT_ID,EPOCH,MEAN_MOTION,ECCENTRICITY,INCLINATION,RA_OF_ASC_NODE,ARG_OF_PERICENTER,MEAN_ANOMALY,EPHEMERIS_TYPE,CLASSIFICATION_TYPE,NORAD_CAT_ID,ELEMENT_SET_NO,REV_AT_EPOCH,BSTAR,MEAN_MOTION_DOT,MEAN_MOTION_DDOT
STARLINK-37975,2026-147D,2026-07-12T15:14:11.167872,15.80833841,.0001724,97.2839,229.8787,84.1641,275.9824,0,U,69707,999,345,.10658E-2,.209157E-2,0
STARLINK-37972,2026-147E,2026-07-12T15:13:06.247776,15.80836198,.0001604,97.2834,229.8793,89.3300,270.8152,0,U,69708,999,345,.10026E-2,.196471E-2,0
STARLINK-37963,2026-147F,2026-07-12T15:12:01.211040,15.80836796,.0001407,97.2830,229.8794,97.7719,262.3709,0,U,69709,999,345,.10888E-2,.213815E-2,0
STARLINK-37969,2026-147G,2026-07-12T15:10:56.500032,15.80827864,.0002021,97.2834,229.8820,90.6592,269.4908,0,U,69710,999,345,.10101E-2,.197912E-2,0
STARLINK-37956,2026-147H,2026-07-12T15:09:51.355296,15.80822630,.00016,97.2834,229.8829,87.9574,272.1877,0,U,69711,999,345,.10056E-2,.196957E-2,0
STARLINK-38043,2026-147J,2026-07-12T15:08:46.575168,15.80831721,.0001812,97.2835,229.8836,86.5914,273.5562,0,U,69712,999,345,.10436E-2,.204675E-2,0
STARLINK-38020,2026-147K,2026-07-12T18:09:59.870016,15.80877947,.0002236,97.2831,230.0201,85.2489,274.9035,0,U,69713,999,347,.11553E-2,.227672E-2,0
STARLINK-38059,2026-147L,2026-07-12T15:06:36.467136,15.80819851,.0001192,97.2836,229.8859,87.5846,272.5559,0,U,69714,999,345,.99858E-3,.195515E-2,0
STARLINK-38061,2026-147M,2026-07-12T13:34:22.569600,15.80946327,.000091,97.2850,229.8216,70.5343,289.6024,0,U,69715,999,344,.10183E-2,.200648E-2,0
STARLINK-38060,2026-147N,2026-07-12T13:33:17.415360,15.80933217,.0000772,97.2833,229.8218,76.6018,283.5336,0,U,69716,999,344,.11019E-2,.217438E-2,0
STARLINK-38040,2026-147P,2026-07-12T13:32:12.401952,15.80996736,.0000557,97.2846,229.8231,18.4300,341.6989,0,U,69717,999,344,.16918E-2,.339677E-2,0
STARLINK-37989,2026-147Q,2026-07-12T08:00:01.999872,15.80858469,.00013257,97.2834,229.5802,94.5508,37.9655,0,U,69718,999,337,-.51826548E-3,-.98494E-3,0
STARLINK-38039,2026-147R,2026-07-10T12:53:07.505952,15.81001041,.00012944,97.2855,227.6808,335.4308,24.6899,0,U,69719,999,312,.17182608E-2,.345258E-2,0
STARLINK-38003,2026-147S,2026-07-12T13:28:57.758304,15.81007704,.0000686,97.2830,229.8246,50.2845,309.8484,0,U,69720,999,344,.19409E-2,.392282E-2,0
STARLINK-38014,2026-147T,2026-07-12T13:27:52.826976,15.81002046,.0000843,97.2841,229.8266,50.1764,309.9579,0,U,69721,999,344,.18338E-2,.36956E-2,0
STARLINK-37915,2026-147U,2026-07-12T13:26:47.813568,15.80991449,.0000638,97.2831,229.8269,38.3094,321.8219,0,U,69722,999,344,.16996E-2,.341217E-2,0
STARLINK-38007,2026-147V,2026-07-12T13:30:15.070752,15.80975274,.0002075,97.2834,229.8252,57.5524,302.5945,0,U,69723,999,344,.1886E-2,.380064E-2,0
STARLINK-38008,2026-147W,2026-07-12T13:24:37.854144,15.80822747,.0001283,97.2829,229.8289,115.9222,244.2178,0,U,69724,999,344,.11772E-2,.231512E-2,0
STARLINK-38021,2026-147X,2026-07-12T13:23:33.347904,15.80924189,.000129,97.2831,229.8302,81.4367,278.7048,0,U,69725,999,344,.11654E-2,.230209E-2,0
STARLINK-38015,2026-147Y,2026-07-12T13:22:27.971616,15.80826185,.000101,97.2828,229.8308,107.5033,252.6345,0,U,69726,999,344,.10189E-2,.199645E-2,0
STARLINK-38010,2026-147Z,2026-07-12T20:00:01.999008,15.75346215,.0001287,97.2843,230.0901,90.7698,318.1504,0,U,69727,999,345,-.2257E-2,-.326454E-2,0
SXM-11,2026-148A,2026-07-12T14:39:00.362304,1.00371494,.0006024,0.1203,265.0138,283.4113,201.3552,0,U,69728,999,29,0,-.4E-7,0
HAIYANG-2E,2026-149A,2026-07-12T13:08:39.145056,13.79314823,.0001576,99.3453,200.5080,94.4426,265.6906,0,U,69737,999,146,-.48807E-4,-.94E-6,0
CZ-4B R/B,2026-149B,2026-07-12T12:47:17.221344,14.30066989,.01982476,99.3217,201.3613,337.7564,21.5104,0,U,69738,999,175,.36475996E-4,.59E-6,0
STARLINK-38033,2026-150A,2026-07-12T20:00:01.999008,15.80852671,.0001238,97.2837,32.0597,96.4593,60.8706,0,U,69739,999,292,-.35253E-3,-.67262E-3,0
STARLINK-38076,2026-150B,2026-07-12T20:00:01.999008,15.75329923,.0001023,97.2835,32.0344,76.1106,23.2248,0,U,69740,999,292,-.20754E-2,-.300852E-2,0
STARLINK-38074,2026-150C,2026-07-12T20:00:01.999008,15.80863973,.0001209,97.2839,32.0660,83.4614,88.5422,0,U,69741,999,292,-.43168E-3,-.82233E-3,0
STARLINK-38041,2026-150D,2026-07-12T20:00:01.999008,15.80851742,.0000963,97.2838,32.0678,104.9039,71.0512,0,U,69742,999,292,-.42867E-3,-.81619E-3,0
STARLINK-38087,2026-150E,2026-07-12T20:00:01.999008,15.80843775,.0000953,97.2839,32.0689,93.9903,86.6112,0,U,69743,999,292,-.4155E-3,-.79109E-3,0
STARLINK-38078,2026-150F,2026-07-12T20:00:01.999008,15.80853429,.0001173,97.2839,32.0708,91.6351,93.2340,0,U,69744,999,292,-.54423E-3,-.103339E-2,0
