STARLINK-37975          
1 69707U 26147D   26193.63485148  .00209157  00000+0  10658-2 0  9994
2 69707  97.2839 229.8787 0001724  84.1641 275.9824 15.80833841  3450
STARLINK-37972          
1 69708U 26147E   26193.63410009  .00196471  00000+0  10026-2 0  9992
2 69708  97.2834 229.8793 0001604  89.3300 270.8152 15.80836198  3455
STARLINK-37963          
1 69709U 26147F   26193.63334735  .00213815  00000+0  10888-2 0  9992
2 69709  97.2830 229.8794 0001407  97.7719 262.3709 15.80836796  3459
STARLINK-37969          
1 69710U 26147G   26193.63259838  .00197912  00000+0  10101-2 0  9991
2 69710  97.2834 229.8820 0002021  90.6592 269.4908 15.80827864  3454
STARLINK-37956          
1 69711U 26147H   26193.63184439  .00196957  00000+0  10056-2 0  9993
2 69711  97.2834 229.8829 0001600  87.9574 272.1877 15.80822630  3457
STARLINK-38043          
1 69712U 26147J   26193.63109462  .00204675  00000+0  10436-2 0  9996
2 69712  97.2835 229.8836 0001812  86.5914 273.5562 15.80831721  3452
STARLINK-38020          
1 69713U 26147K   26193.75694294  .00227672  00000+0  11553-2 0  9995
2 69713  97.2831 230.0201 0002236  85.2489 274.9035 15.80877947  3475
STARLINK-38059          
1 69714U 26147L   26193.62958874  .00195515  00000+0  99858-3 0  9994
2 69714  97.2836 229.8859 0001192  87.5846 272.5559 15.80819851  3451
STARLINK-38061          
1 69715U 26147M   26193.56553900  .00200648  00000+0  10183-2 0  9996
2 69715  97.2850 229.8216 0000910  70.5343 289.6024 15.80946327  3440
STARLINK-38060          
1 69716U 26147N   26193.56478490  .00217438  00000+0  11019-2 0  9991
2 69716  97.2833 229.8218 0000772  76.6018 283.5336 15.80933217  3449
STARLINK-38040          
1 69717U 26147P   26193.56403243  .00339677  00000+0  16918-2 0  9999
2 69717  97.2846 229.8231 0000557  18.4300 341.6989 15.80996736  3443
STARLINK-37989          
1 69718U 26147Q   26193.33335648 -.00098494  00000+0 -51827-3 0  9998
2 69718  97.2834 229.5802 0001325  94.5508  37.9655 15.80858469  3378
STARLINK-38039          
1 69719U 26147R   26191.53689243  .00345258  00000+0  17183-2 0  9999
2 69719  97.2855 227.6808 0001294 335.4308  24.6899 15.81001041  3120
STARLINK-38003          
1 69720U 26147S   26193.56177961  .00392282  00000+0  19409-2 0  9997
2 69720  97.2830 229.8246 0000686  50.2845 309.8484 15.81007704  3442
STARLINK-38014          
1 69721U 26147T   26193.56102809  .00369560  00000+0  18338-2 0  9990
2 69721  97.2841 229.8266 0000843  50.1764 309.9579 15.81002046  3441
STARLINK-37915          
1 69722U 26147U   26193.56027562  .00341217  00000+0  16996-2 0  9990
2 69722  97.2831 229.8269 0000638  38.3094 321.8219 15.80991449  3447
STARLINK-38007          
1 69723U 26147V   26193.56267443  .00380064  00000+0  18860-2 0  9990
2 69723  97.2834 229.8252 0002075  57.5524 302.5945 15.80975274  3441
STARLINK-38008          
1 69724U 26147W   26193.55877146  .00231512  00000+0  11772-2 0  9995
2 69724  97.2829 229.8289 0001283 115.9222 244.2178 15.80822747  3446
STARLINK-38021          
1 69725U 26147X   26193.55802486  .00230209  00000+0  11654-2 0  9992
2 69725  97.2831 229.8302 0001290  81.4367 278.7048 15.80924189  3442
STARLINK-38015          
1 69726U 26147Y   26193.55726819  .00199645  00000+0  10189-2 0  9998
2 69726  97.2828 229.8308 0001010 107.5033 252.6345 15.80826185  3443
STARLINK-38010          
1 69727U 26147Z   26193.83335647 -.00326454  00000+0 -22570-2 0  9994
2 69727  97.2843 230.0901 0001287  90.7698 318.1504 15.75346215  3451
SXM-11                  
1 69728U 26148A   26193.61042086 -.00000004  00000+0  00000+0 0  9994
2 69728   0.1203 265.0138 0006024 283.4113 201.3552  1.00371494   297
HAIYANG-2E              
1 69737U 26149A   26193.54767529 -.00000094  00000+0 -48807-4 0  9995
2 69737  99.3453 200.5080 0001576  94.4426 265.6906 13.79314823  1466
CZ-4B R/B               
1 69738U 26149B   26193.53283821  .00000059  00000+0  36476-4 0  9991
2 69738  99.3217 201.3613 0198247 337.7564  21.5104 14.30066989  1750
STARLINK-38033          
1 69739U 26150A   26193.83335647 -.00067262  00000+0 -35253-3 0  9993
2 69739  97.2837  32.0597 0001238  96.4593  60.8706 15.80852671  2921
STARLINK-38076          
1 69740U 26150B   26193.83335647 -.00300852  00000+0 -20754-2 0  9999
2 69740  97.2835  32.0344 0001023  76.1106  23.2248 15.75329923  2925
STARLINK-38074          
1 69741U 26150C   26193.83335647 -.00082233  00000+0 -43168-3 0  9995
2 69741  97.2839  32.0660 0001209  83.4614  88.5422 15.80863973  2924
STARLINK-38041          
1 69742U 26150D   26193.83335647 -.00081619  00000+0 -42867-3 0  9998
2 69742  97.2838  32.0678 0000963 104.9039  71.0512 15.80851742  2927
STARLINK-38087          
1 69743U 26150E   26193.83335647 -.00079109  00000+0 -41550-3 0  9998
2 69743  97.2839  32.0689 0000953  93.9903  86.6112 15.80843775  2922
STARLINK-38078          
1 69744U 26150F   26193.83335647 -.00103339  00000+0 -54423-3 0  9995
2 69744  97.2839  32.0708 0001173  91.6351  93.2340 15.80853429  2926
